[{"OBJECT_NAME":"MONITOR-3 (RS58S)","OBJECT_ID":"2023-091Q","EPOCH":"2026-03-09T23:24:02.583360","MEAN_MOTION":15.25747617,"ECCENTRICITY":0.0013676,"INCLINATION":97.5199,"RA_OF_ASC_NODE":131.7909,"ARG_OF_PERICENTER":91.0881,"MEAN_ANOMALY":269.1924,"EPHEMERIS_TYPE":0,"CLASSIFICATION_TYPE":"U","NORAD_CAT_ID":57180,"ELEMENT_SET_NO":999,"REV_AT_EPOCH":14915,"BSTAR":0.00054974842,"MEAN_MOTION_DOT":0.00014004,"MEAN_MOTION_DDOT":0},{"OBJECT_NAME":"STARLINK-32881","OBJECT_ID":"2025-031S","EPOCH":"2026-03-09T06:32:17.260800","MEAN_MOTION":15.2757529,"ECCENTRICITY":0.0001164,"INCLINATION":43.0013,"RA_OF_ASC_NODE":145.4957,"ARG_OF_PERICENTER":231.6064,"MEAN_ANOMALY":128.4683,"EPHEMERIS_TYPE":0,"CLASSIFICATION_TYPE":"U","NORAD_CAT_ID":62997,"ELEMENT_SET_NO":999,"REV_AT_EPOCH":6103,"BSTAR":0.0011892361,"MEAN_MOTION_DOT":0.00032603,"MEAN_MOTION_DDOT":0}]
